$$SOE
2460154.500000000, A.D. 2023-Jul-29 00:00:00.0000, -1.401658652255544E+08, -2.598087258512264E+08, 1.244485728953985E+08,
2460161.500000000, A.D. 2023-Aug-05 00:00:00.0000, -1.298717584433291E+08, -2.651178372167517E+08, 1.232493309911979E+08,
2460168.500000000, A.D. 2023-Aug-12 00:00:00.0000, -1.193851693398864E+08, -2.700338964796475E+08, 1.218673642661360E+08,
2460175.500000000, A.D. 2023-Aug-19 00:00:00.0000, -1.087208106440107E+08, -2.745477217729893E+08, 1.203038668701102E+08,
2460182.500000000, A.D. 2023-Aug-26 00:00:00.0000, -9.789372679999338E+07, -2.786504595055002E+08, 1.185602341251124E+08,
2460189.500000000, A.D. 2023-Sep-02 00:00:00.0000, -8.691929869547404E+07, -2.823335949757994E+08, 1.166380673297162E+08,
2460196.500000000, A.D. 2023-Sep-09 00:00:00.0000, -7.581324836918154E+07, -2.855889644720423E+08, 1.145391789976327E+08,
2460203.500000000, A.D. 2023-Sep-16 00:00:00.0000, -6.459164343513894E+07, -2.884087689814605E+08, 1.122655985052327E+08,
2460210.500000000, A.D. 2023-Sep-23 00:00:00.0000, -5.327090070392679E+07, -2.907855892895802E+08, 1.098195781256370E+08,
2460217.500000000, A.D. 2023-Sep-30 00:00:00.0000, -4.186778922879862E+07, -2.927124013444380E+08, 1.072035995671510E+08,
2460224.500000000, A.D. 2023-Oct-07 00:00:00.0000, -3.039943500827165E+07, -2.941825924924036E+08, 1.044203811726255E+08,
2460231.500000000, A.D. 2023-Oct-14 00:00:00.0000, -1.888332617043670E+07, -2.951899819614410E+08, 1.014728853950524E+08,
2460238.500000000, A.D. 2023-Oct-21 00:00:00.0000, -7.337315263876458E+06, -2.957288440529218E+08, 9.836432636442389E+07,
2460245.500000000, A.D. 2023-Oct-28 00:00:00.0000, 4.220380077448241E+06, -2.957939318429382E+08, 9.509817783778811E+07,
2460252.500000000, A.D. 2023-Nov-04 00:00:00.0000, 1.577117701529524E+07, -2.953805022182070E+08, 9.167818155426323E+07,
2460259.500000000, A.D. 2023-Nov-11 00:00:00.0000, 2.729612829625714E+07, -2.944843428944054E+08, 8.810835589301586E+07,
2460266.500000000, A.D. 2023-Nov-18 00:00:00.0000, 3.877592436766101E+07, -2.931018015208700E+08, 8.439300476457703E+07,
2460273.500000000, A.D. 2023-Nov-25 00:00:00.0000, 5.019089710860949E+07, -2.912298168776007E+08, 8.053672667745721E+07,
2460280.500000000, A.D. 2023-Dec-02 00:00:00.0000, 6.152102543848012E+07, -2.888659521916058E+08, 7.654442391455075E+07,
2460287.500000000, A.D. 2023-Dec-09 00:00:00.0000, 7.274594313333365E+07, -2.860084306345156E+08, 7.242131173786983E+07,
2460294.500000000, A.D. 2023-Dec-16 00:00:00.0000, 8.384494940610513E+07, -2.826561729767835E+08, 6.817292751803488E+07,
2460301.500000000, A.D. 2023-Dec-23 00:00:00.0000, 9.479702288193703E+07, -2.788088366784415E+08, 6.380513972228768E+07,
2460308.500000000, A.D. 2023-Dec-30 00:00:00.0000, 1.055808379264072E+08, -2.744668553081877E+08, 5.932415686455391E+07,
2460315.500000000, A.D. 2024-Jan-06 00:00:00.0000, 1.161747818676272E+08, -2.696314805598177E+08, 5.473653626615824E+07,
2460322.500000000, A.D. 2024-Jan-13 00:00:00.0000, 1.265569766151440E+08, -2.643048285467460E+08, 5.004919205296019E+07,
2460329.500000000, A.D. 2024-Jan-20 00:00:00.0000, 1.367053062431065E+08, -2.584899271307367E+08, 4.526940238029895E+07,
2460336.500000000, A.D. 2024-Jan-27 00:00:00.0000, 1.465974488602790E+08, -2.521907634329644E+08, 4.040481596099553E+07,
2460343.500000000, A.D. 2024-Feb-03 00:00:00.0000, 1.562109126941917E+08, -2.454123322274127E+08, 3.546345767631810E+07,
2460350.500000000, A.D. 2024-Feb-10 00:00:00.0000, 1.655230770236647E+08, -2.381606852058011E+08, 3.045373302138391E+07,
2460357.500000000, A.D. 2024-Feb-17 00:00:00.0000, 1.745112384509514E+08, -2.304429807470887E+08, 2.538443115661433E+07,
2460364.500000000, A.D. 2024-Feb-24 00:00:00.0000, 1.831526628897023E+08, -2.222675337558628E+08, 2.026472632976229E+07,
2460371.500000000, A.D. 2024-Mar-02 00:00:00.0000, 1.914246436170811E+08, -2.136438651124966E+08, 1.510417741260346E+07,
2460378.500000000, A.D. 2024-Mar-09 00:00:00.0000, 1.993045658209368E+08, -2.045827502344627E+08, 9.912725268768512E+06,
2460385.500000000, A.D. 2024-Mar-16 00:00:00.0000, 2.067699782953901E+08, -1.950962659199735E+08, 4.700687655786678E+06,
2460392.500000000, A.D. 2024-Mar-23 00:00:00.0000, 2.137986723812712E+08, -1.851978336696199E+08, -5.212485265929103E+05,
2460399.500000000, A.D. 2024-Mar-30 00:00:00.0000, 2.203687660222611E+08, -1.749022587352855E+08, -5.742037738479748E+06,
2460406.500000000, A.D. 2024-Apr-06 00:00:00.0000, 2.264587932088940E+08, -1.642257673810888E+08, -1.095028965408861E+07,
2460413.500000000, A.D. 2024-Apr-13 00:00:00.0000, 2.320478022988816E+08, -1.531860405430358E+08, -1.613428691741780E+07,
2460420.500000000, A.D. 2024-Apr-20 00:00:00.0000, 2.371154621213440E+08, -1.418022401829252E+08, -2.128200676846389E+07,
2460427.500000000, A.D. 2024-Apr-27 00:00:00.0000, 2.416421740893689E+08, -1.300950278461231E+08, -2.638114670695417E+07,
2460434.500000000, A.D. 2024-May-04 00:00:00.0000, 2.456091899848277E+08, -1.180865750462778E+08, -3.141915449867027E+07,
2460441.500000000, A.D. 2024-May-11 00:00:00.0000, 2.489987350454336E+08, -1.058005644609704E+08, -3.638326275663893E+07,
2460448.500000000, A.D. 2024-May-18 00:00:00.0000, 2.517941356481431E+08, -9.326218077384897E+07, -4.126052825081746E+07,
2460455.500000000, A.D. 2024-May-25 00:00:00.0000, 2.539799506524331E+08, -8.049809003619498E+07, -4.603787603442134E+07,
2460462.500000000, A.D. 2024-Jun-01 00:00:00.0000, 2.555421053217199E+08, -6.753640652135959E+07, -5.070214841632301E+07,
2460469.500000000, A.D. 2024-Jun-08 00:00:00.0000, 2.564680267279285E+08, -5.440664609564429E+07, -5.524015874773467E+07,
2460476.500000000, A.D. 2024-Jun-15 00:00:00.0000, 2.567467794969452E+08, -4.113966466789861E+07, -5.963874986779220E+07,
2460483.500000000, A.D. 2024-Jun-22 00:00:00.0000, 2.563691991820674E+08, -2.776757980132284E+07, -6.388485677513239E+07,
2460490.500000000, A.D. 2024-Jun-29 00:00:00.0000, 2.553280192731809E+08, -1.432367677819271E+07, -6.796557313013217E+07,
2460497.500000000, A.D. 2024-Jul-06 00:00:00.0000, 2.536179924481547E+08, -8.423012879600152E+05, -7.186822155873841E+07,
2460504.500000000, A.D. 2024-Jul-13 00:00:00.0000, 2.512360058658485E+08, 1.264126413143650E+07, -7.558042710740399E+07,
2460511.500000000, A.D. 2024-Jul-20 00:00:00.0000, 2.481811863120306E+08, 2.609094079087781E+07, -7.909019285948360E+07,
2460518.500000000, A.D. 2024-Jul-27 00:00:00.0000, 2.444549923264516E+08, 3.947001013470381E+07, -8.238597690714410E+07,
2460525.500000000, A.D. 2024-Aug-03 00:00:00.0000, 2.400612914071892E+08, 5.274128429349523E+07, -8.545676980737558E+07,
2460532.500000000, A.D. 2024-Aug-10 00:00:00.0000, 2.350064203826153E+08, 6.586728959427564E+07, -8.829217152166793E+07,
2460539.500000000, A.D. 2024-Aug-17 00:00:00.0000, 2.292992270903176E+08, 7.881046138249113E+07, -9.088246675599261E+07,
2460546.500000000, A.D. 2024-Aug-24 00:00:00.0000, 2.229510917170409E+08, 9.153334811904842E+07, -9.321869757333496E+07,
2460553.500000000, A.D. 2024-Aug-31 00:00:00.0000, 2.159759265415299E+08, 1.039988223566252E+08, -9.529273214468800E+07,
2460560.500000000, A.D. 2024-Sep-07 00:00:00.0000, 2.083901534319884E+08, 1.161702961032287E+08, -9.709732852474365E+07,
2460567.500000000, A.D. 2024-Sep-14 00:00:00.0000, 2.002126585683984E+08, 1.280119387141985E+08, -9.862619227459517E+07,
2460574.500000000, A.D. 2024-Sep-21 00:00:00.0000, 1.914647221804501E+08, 1.394888947274674E+08, -9.987402667394249E+07,
2460581.500000000, A.D. 2024-Sep-28 00:00:00.0000, 1.821699231334842E+08, 1.505674953505418E+08, -1.008365748384905E+08,
2460588.500000000, A.D. 2024-Oct-05 00:00:00.0000, 1.723540228411609E+08, 1.612154605065300E+08, -1.015106533121763E+08,
2460595.500000000, A.D. 2024-Oct-12 00:00:00.0000, 1.620448294058352E+08, 1.714020914063456E+08, -1.018941762330706E+08,
2460602.500000000, A.D. 2024-Oct-19 00:00:00.0000, 1.512720419501091E+08, 1.810984505453374E+08, -1.019861694976294E+08,
2460609.500000000, A.D. 2024-Oct-26 00:00:00.0000, 1.400670772371602E+08, 1.902775257432468E+08, -1.017867747521145E+08,
2460616.500000000, A.D. 2024-Nov-02 00:00:00.0000, 1.284628813209037E+08, 1.989143758209327E+08, -1.012972432188694E+08,
2460623.500000000, A.D. 2024-Nov-09 00:00:00.0000, 1.164937290896891E+08, 2.069862560600833E+08, -1.005199195414706E+08,
2460630.500000000, A.D. 2024-Nov-16 00:00:00.0000, 1.041950147011965E+08, 2.144727220027438E+08, -9.945821602543433E+07,
2460637.500000000, A.D. 2024-Nov-23 00:00:00.0000, 9.160303604691491E+07, 2.213557105593196E+08, -9.811657784002361E+07,
2460644.500000000, A.D. 2024-Nov-30 00:00:00.0000, 7.875477657789861E+07, 2.276195978774389E+08, -9.650043992338043E+07,
2460651.500000000, A.D. 2024-Dec-07 00:00:00.0000, 6.568768798192366E+07, 2.332512343626999E+08, -9.461617645444977E+07,
2460658.500000000, A.D. 2024-Dec-14 00:00:00.0000, 5.243947596851522E+07, 2.382399584963776E+08, -9.247104369879751E+07,
2460665.500000000, A.D. 2024-Dec-21 00:00:00.0000, 3.904788958133693E+07, 2.425775890287810E+08, -9.007311714864321E+07,
2460672.500000000, A.D. 2024-Dec-28 00:00:00.0000, 2.555051845741538E+07, 2.462583937841400E+08, -8.743122446254380E+07,
2460679.500000000, A.D. 2025-Jan-04 00:00:00.0000, 1.198460278744637E+07, 2.492790389978677E+08, -8.455487538215941E+07,
2460686.500000000, A.D. 2025-Jan-11 00:00:00.0000, -1.613144010184068E+06, 2.516385226253410E+08, -8.145418943527591E+07,
2460693.500000000, A.D. 2025-Jan-18 00:00:00.0000, -1.520669934986464E+07, 2.533380926702142E+08, -7.813982248180270E+07,
2460700.500000000, A.D. 2025-Jan-25 00:00:00.0000, -2.876088091749153E+07, 2.543811521569758E+08, -7.462289316829690E+07,
2460707.500000000, A.D. 2025-Feb-01 00:00:00.0000, -4.224148053356791E+07, 2.547731528758135E+08, -7.091491022376184E+07,
2460714.500000000, A.D. 2025-Feb-08 00:00:00.0000, -5.561538196229285E+07, 2.545214800708253E+08, -6.702770140384135E+07,
2460721.500000000, A.D. 2025-Feb-15 00:00:00.0000, -6.885066255160268E+07, 2.536353301485451E+08, -6.297334478388714E+07,
$$EOE